STARLINK-1932
1 16770C 20074AH  21326.09339744  .00008242  00000-0  55222-3 0  3269
2 16770  53.0513 178.3223 0002389  66.7094 147.4576 15.06390770    16
